[{"OBJECT_NAME":"LKW-4","OBJECT_ID":"2018-025A","EPOCH":"2026-03-09T22:35:59.889696","MEAN_MOTION":15.54576681,"ECCENTRICITY":0.00029172,"INCLINATION":97.6271,"RA_OF_ASC_NODE":232.6737,"ARG_OF_PERICENTER":300.1115,"MEAN_ANOMALY":59.9849,"EPHEMERIS_TYPE":0,"CLASSIFICATION_TYPE":"U","NORAD_CAT_ID":43236,"ELEMENT_SET_NO":999,"REV_AT_EPOCH":44457,"BSTAR":0.00064120349,"MEAN_MOTION_DOT":0.00042392,"MEAN_MOTION_DDOT":0},{"OBJECT_NAME":"STARLINK-36597","OBJECT_ID":"2026-018AA","EPOCH":"2026-03-09T22:00:01.999584","MEAN_MOTION":15.6227294,"ECCENTRICITY":0.00019632,"INCLINATION":97.2837,"RA_OF_ASC_NODE":134.8157,"ARG_OF_PERICENTER":78.0826,"MEAN_ANOMALY":100.8672,"EPHEMERIS_TYPE":0,"CLASSIFICATION_TYPE":"U","NORAD_CAT_ID":67613,"ELEMENT_SET_NO":999,"REV_AT_EPOCH":604,"BSTAR":-0.025061707,"MEAN_MOTION_DOT":-0.01947068,"MEAN_MOTION_DDOT":0}]
